NORAD_CAT_ID,OBJECT_NAME,OBJECT_TYPE,EPOCH,MEAN_MOTION,ECCENTRICITY,INCLINATION,RA_OF_ASC_NODE,ARG_OF_PERICENTER,MEAN_ANOMALY,BSTAR,MEAN_MOTION_DOT,MEAN_MOTION_DDOT,TLE_LINE0,TLE_LINE1,TLE_LINE2,SEMIMAJOR_AXIS,PERIOD,APOGEE,PERIGEE,DECAYED
52468.0,STARLINK-3864,PAYLOAD,2022-10-01 08:01:56,15.08850847,0.0002029,53.216,294.6289,41.2345,318.88,0.0006446,9.989e-05,0.0,0 STARLINK-3864,1 52468U 22049T   22274.33468320  .00009989  00000-0  64460-3 0  9996,2 52468  53.2160 294.6289 0002029  41.2345 318.8800 15.08850847 22734,6917.847,95.437,541.116,538.309,0.0
52468.0,STARLINK-3864,PAYLOAD,2022-10-02 04:41:56,15.08856101,0.0001834,53.2162,290.7628,43.8743,316.2394,0.00035039,5.295e-05,0.0,0 STARLINK-3864,1 52468U 22049T   22275.19579670  .00005295  00000-0  35039-3 0  9998,2 52468  53.2162 290.7628 0001834  43.8743 316.2394 15.08856101 23025,6917.831,95.437,540.965,538.427,0.0
52468.0,STARLINK-3864,PAYLOAD,2022-10-02 07:52:43,15.08841093,0.0002038,53.2168,290.1678,43.4578,316.6575,2.8595e-05,1.67e-06,0.0,0 STARLINK-3864,1 52468U 22049T   22275.32828080  .00000167  00000-0  28595-4 0  9998,2 52468  53.2168 290.1678 0002038  43.4578 316.6575 15.08841093 23040,6917.877,95.437,541.1519999999998,538.332,0.0
52468.0,STARLINK-3864,PAYLOAD,2022-10-02 12:38:53,15.0883274,0.0002076,53.2161,289.2761,40.5431,319.5715,-2.4513e-05,-6.78e-06,0.0,0 STARLINK-3864,1 52468U 22049T   22275.52700749 -.00000678  00000-0 -24513-4 0  9996,2 52468  53.2161 289.2761 0002076  40.5431 319.5715 15.08832740 23073,6917.903,95.438,541.2040000000002,538.331,0.0
52468.0,STARLINK-3864,PAYLOAD,2022-10-03 04:32:44,15.08843583,0.0001953,53.2165,286.3021,41.8823,318.2318,7.697800000000001e-05,9.37e-06,0.0,0 STARLINK-3864,1 52468U 22049T   22276.18940185  .00000937  00000-0  76978-4 0  9997,2 52468  53.2165 286.3021 0001953  41.8823 318.2318 15.08843583 23179,6917.869000000002,95.437,541.085,538.383,0.0
52468.0,STARLINK-3864,PAYLOAD,2022-10-03 10:54:16,15.08847164,0.0002143,53.2165,285.1132,40.3834,319.7317,0.00034071,5.139e-05,0.0,0 STARLINK-3864,1 52468U 22049T   22276.45436205  .00005139  00000-0  34071-3 0  9996,2 52468  53.2165 285.1132 0002143  40.3834 319.7317 15.08847164 23058,6917.858,95.437,541.206,538.241,0.0
52468.0,STARLINK-3864,PAYLOAD,2022-10-03 17:15:49,15.08856497,0.0002085999999999,53.2158,283.9244,40.7612,319.3536,0.00058235,8.996e-05,0.0,0 STARLINK-3864,1 52468U 22049T   22276.71931979  .00008996  00000-0  58235-3 0  9995,2 52468  53.2158 283.9244 0002086  40.7612 319.3536 15.08856497 23096,6917.83,95.437,541.138,538.252,0.0
52468.0,STARLINK-3864,PAYLOAD,2022-10-04 01:12:44,15.08860284,0.0001986999999999,53.2161,282.4373,41.9357,318.1787,0.00080519,0.00012557,0.0,0 STARLINK-3864,1 52468U 22049T   22277.05051833  .00012557  00000-0  80519-3 0  9993,2 52468  53.2161 282.4373 0001987  41.9357 318.1787 15.08860284 23303,6917.818,95.436,541.058,538.309,0.0
52468.0,STARLINK-3864,PAYLOAD,2022-10-04 09:09:40,15.08855599,0.0001986,53.2163,280.95,42.9183,317.1964,0.00039979,6.083e-05,0.0,0 STARLINK-3864,1 52468U 22049T   22277.38171618  .00006083  00000-0  39979-3 0  9994,2 52468  53.2163 280.9500 0001986  42.9183 317.1964 15.08855599 23193,6917.833000000001,95.437,541.072,538.3240000000002,0.0
52468.0,STARLINK-3864,PAYLOAD,2022-10-04 17:06:35,15.08856421,0.0001999,53.2161,279.4636,44.8945,315.2208,0.00035774,5.412e-05,0.0,0 STARLINK-3864,1 52468U 22049T   22277.71291368  .00005412  00000-0  35774-3 0  9990,2 52468  53.2161 279.4636 0001999  44.8945 315.2208 15.08856421 23246,6917.83,95.437,541.078,538.312,0.0
52468.0,STARLINK-3864,PAYLOAD,2022-10-05 05:49:41,15.0884171,0.0001903,53.216,277.0847,43.4147,316.6995,-3.8986e-05,-9.09e-06,0.0,0 STARLINK-3864,1 52468U 22049T   22278.24283611 -.00000909  00000-0 -38986-4 0  9998,2 52468  53.2160 277.0847 0001903  43.4147 316.6995 15.08841710 23486,6917.875,95.437,541.057,538.424,0.0
52468.0,STARLINK-3864,PAYLOAD,2022-10-05 12:11:13,15.08844471,0.0001849,53.2153,275.8955,43.7492,316.3646,0.00016233,2.297e-05,0.0,0 STARLINK-3864,1 52468U 22049T   22278.50779472  .00002297  00000-0  16233-3 0  9992,2 52468  53.2153 275.8955 0001849  43.7492 316.3646 15.08844471 23363,6917.8669999999975,95.437,541.011,538.453,0.0
52468.0,STARLINK-3864,PAYLOAD,2022-10-05 16:57:23,15.0884027,0.0002032,53.2156,275.0024,40.9949,319.1196,0.00015318,2.151e-05,0.0,0 STARLINK-3864,1 52468U 22049T   22278.70651718  .00002151  00000-0  15318-3 0  9998,2 52468  53.2156 275.0024 0002032  40.9949 319.1196 15.08840270 23393,6917.88,95.438,541.15,538.339,0.0
52468.0,STARLINK-3864,PAYLOAD,2022-10-06 08:51:14,15.08846842,0.0002026999999999,53.2154,272.029,41.8297,318.2849,0.00035745,5.406e-05,0.0,0 STARLINK-3864,1 52468U 22049T   22279.36891775  .00005406  00000-0  35745-3 0  9992,2 52468  53.2154 272.0290 0002027  41.8297 318.2849 15.08846842 23490,6917.859,95.437,541.127,538.322,0.0
52468.0,STARLINK-3864,PAYLOAD,2022-10-06 16:48:10,15.08838355,0.0001996,53.2151,270.5429,43.5994,316.5156,0.00030049,4.497e-05,0.0,0 STARLINK-3864,1 52468U 22049T   22279.70012073  .00004497  00000-0  30049-3 0  9997,2 52468  53.2151 270.5429 0001996  43.5994 316.5156 15.08838355 23549,6917.885,95.438,541.131,538.37,0.0
52468.0,STARLINK-3864,PAYLOAD,2022-10-07 08:42:01,15.08849031,0.0001834,53.2144,267.57,43.3797,316.7340000000001,0.00032497,4.889e-05,0.0,0 STARLINK-3864,1 52468U 22049T   22280.36251584  .00004889  00000-0  32497-3 0  9997,2 52468  53.2144 267.5700 0001834  43.3797 316.7340 15.08849031 23640,6917.853,95.437,540.987,538.4490000000002,0.0
52468.0,STARLINK-3864,PAYLOAD,2022-10-08 05:22:02,15.08844695,0.0002108,53.2158,263.7027,41.3333,318.7818,0.00015383,2.161e-05,0.0,0 STARLINK-3864,1 52468U 22049T   22281.22363682  .00002161  00000-0  15383-3 0  9992,2 52468  53.2158 263.7027 0002108  41.3333 318.7818 15.08844695 23939,6917.866,95.437,541.189,538.273,0.0
52468.0,STARLINK-3864,PAYLOAD,2022-10-08 10:08:11,15.08840079,0.0002014,53.2161,262.8106,43.3834,316.7316,3.5412e-05,2.75e-06,0.0,0 STARLINK-3864,1 52468U 22049T   22281.42235932  .00000275  00000-0  35412-4 0  9990,2 52468  53.2161 262.8106 0002014  43.3834 316.7316 15.08840079 23804,6917.88,95.438,541.138,538.352,0.0
52468.0,STARLINK-3864,PAYLOAD,2022-10-08 16:29:44,15.08840481,0.0002028,53.2162,261.6211,43.7797,316.3355,1.7385e-05,-1.2e-07,0.0,0 STARLINK-3864,1 52468U 22049T   22281.68731917 -.00000012  00000-0  17385-4 0  9991,2 52468  53.2162 261.6211 0002028  43.7797 316.3355 15.08840481 23846,6917.879,95.438,541.1469999999998,538.341,0.0
52468.0,STARLINK-3864,PAYLOAD,2022-10-09 09:58:58,15.08848347,0.0001995,53.2161,258.3506,40.8082,319.3059,0.00015185,2.13e-05,0.0,0 STARLINK-3864,1 52468U 22049T   22282.41595635  .00002130  00000-0  15185-3 0  9995,2 52468  53.2161 258.3506 0001995  40.8082 319.3059 15.08848347 24116,6917.855,95.437,541.1,538.34,0.0
52468.0,STARLINK-3864,PAYLOAD,2022-10-10 05:03:36,15.08840015,0.0002041,53.2162,254.7805,44.971,315.1448,0.00026981,4.009e-05,0.0,0 STARLINK-3864,1 52468U 22049T   22283.21084059  .00004009  00000-0  26981-3 0  9990,2 52468  53.2162 254.7805 0002041  44.9710 315.1448 15.08840015 24238,6917.88,95.438,541.1569999999998,538.3330000000002,0.0
52468.0,STARLINK-3864,PAYLOAD,2022-10-10 09:49:45,15.088482999999998,0.0002029,53.216,253.8886,45.3594,314.7564,0.00031843,4.784e-05,0.0,0 STARLINK-3864,1 52468U 22049T   22283.40955834  .00004784  00000-0  31843-3 0  9992,2 52468  53.2160 253.8886 0002029  45.3594 314.7564 15.08848300 24101,6917.855,95.437,541.124,538.316,0.0
52468.0,STARLINK-3864,PAYLOAD,2022-10-10 14:35:55,15.088443099999996,0.0002046999999999,53.2161,252.9961,45.8571,314.2589,0.00019212,2.771e-05,0.0,0 STARLINK-3864,1 52468U 22049T   22283.60827927  .00002771  00000-0  19212-3 0  9995,2 52468  53.2161 252.9961 0002047  45.8571 314.2589 15.08844310 24138,6917.8669999999975,95.437,541.148,538.316,0.0
52468.0,STARLINK-3864,PAYLOAD,2022-10-11 03:19:00,15.08826907,0.0002012,53.2163,250.6181,45.3291,314.7865,-0.00025061,-4.273e-05,0.0,0 STARLINK-3864,1 52468U 22049T   22284.13820492 -.00004273  00000-0 -25061-3 0  9994,2 52468  53.2163 250.6181 0002012  45.3291 314.7865 15.08826907 24375,6917.92,95.438,541.177,538.394,0.0
52468.0,STARLINK-3864,PAYLOAD,2022-10-11 09:40:33,15.08832644,0.0001996,53.2163,249.4289,49.6664,310.4502,-8.719e-05,-1.675e-05,0.0,0 STARLINK-3864,1 52468U 22049T   22284.40316412 -.00001675  00000-0 -87190-4 0  9991,2 52468  53.2163 249.4289 0001996  49.6664 310.4502 15.08832644 24254,6917.903,95.438,541.149,538.387,0.0
52468.0,STARLINK-3864,PAYLOAD,2022-10-12 09:31:20,15.08843043,0.0001808,53.2165,244.9684,47.0746,313.0398,0.00059712,9.229e-05,0.0,0 STARLINK-3864,1 52468U 22049T   22285.39676998  .00009229  00000-0  59712-3 0  9997,2 52468  53.2165 244.9684 0001808  47.0746 313.0398 15.08843043 24404,6917.871,95.437,540.987,538.485,0.0
52468.0,STARLINK-3864,PAYLOAD,2022-10-12 20:39:03,15.08836292,0.0001883,53.2165,242.8868,47.0952,313.0198,0.00030462,4.563e-05,0.0,0 STARLINK-3864,1 52468U 22049T   22285.86045401  .00004563  00000-0  30462-3 0  9995,2 52468  53.2165 242.8868 0001883  47.0952 313.0198 15.08836292 24470,6917.892,95.438,541.059,538.4540000000002,0.0
52468.0,STARLINK-3864,PAYLOAD,2022-10-13 09:22:08,15.08834887,0.0001863,53.2165,240.5082,47.2849,312.83,0.00013231,1.818e-05,0.0,0 STARLINK-3864,1 52468U 22049T   22286.39037632  .00001818  00000-0  13231-3 0  9996,2 52468  53.2165 240.5082 0001863  47.2849 312.8300 15.08834887 24557,6917.896,95.438,541.05,538.472,0.0
52468.0,STARLINK-3864,PAYLOAD,2022-10-13 14:08:17,15.08839944,0.0001879,53.2167,239.6158,47.9726,312.1426,0.00026685,3.961e-05,0.0,0 STARLINK-3864,1 52468U 22049T   22286.58909470  .00003961  00000-0  26685-3 0  9993,2 52468  53.2167 239.6158 0001879  47.9726 312.1426 15.08839944 24584,6917.880999999999,95.438,541.045,538.446,0.0
